{
  "norad_id": 63249,
  "name": "EZIE-C",
  "history": [
    {
      "epoch": "2026-03-28T16:40:21.450144Z",
      "apogee_km": 580.5312565822851,
      "perigee_km": 574.6703519084285,
      "latitude_deg": -4.534059517258489e-05,
      "longitude_deg": -95.1353257320669,
      "height_km": 581.8419370920615,
      "semi_major_axis_km": 6955.7378042453565,
      "eccentricity": 0.0004213,
      "inclination_deg": 97.6965,
      "raan_deg": 341.0655,
      "arg_perigee_deg": 114.1208,
      "mean_anomaly_deg": 246.0454,
      "mean_motion_rev_day": 14.96538719
    },
    {
      "epoch": "2026-03-29T03:54:19.710432Z",
      "apogee_km": 580.5419214575932,
      "perigee_km": 574.6003555656762,
      "latitude_deg": -5.78936072422418e-07,
      "longitude_deg": 96.37100025478549,
      "height_km": 581.7801551785348,
      "semi_major_axis_km": 6955.708138511634,
      "eccentricity": 0.0004271,
      "inclination_deg": 97.6964,
      "raan_deg": 341.5259,
      "arg_perigee_deg": 113.1014,
      "mean_anomaly_deg": 247.0658,
      "mean_motion_rev_day": 14.96548293
    },
    {
      "epoch": "2026-03-29T23:09:41.942592Z",
      "apogee_km": 580.5815197928277,
      "perigee_km": 574.477226983543,
      "latitude_deg": -1.844304893918493e-05,
      "longitude_deg": 167.52674603231833,
      "height_km": 581.682997110761,
      "semi_major_axis_km": 6955.666373388185,
      "eccentricity": 0.0004388,
      "inclination_deg": 97.6966,
      "raan_deg": 342.3151,
      "arg_perigee_deg": 111.3372,
      "mean_anomaly_deg": 248.8318,
      "mean_motion_rev_day": 14.96561772
    },
    {
      "epoch": "2026-03-30T10:23:39.610176Z",
      "apogee_km": 580.5964571881668,
      "perigee_km": 574.4145603520719,
      "latitude_deg": -3.891371175175053e-06,
      "longitude_deg": -0.9644470043238167,
      "height_km": 581.6103486018708,
      "semi_major_axis_km": 6955.642508770119,
      "eccentricity": 0.00044438,
      "inclination_deg": 97.6967,
      "raan_deg": 342.7755,
      "arg_perigee_deg": 110.0942,
      "mean_anomaly_deg": 250.0758,
      "mean_motion_rev_day": 14.96569474
    },
    {
      "epoch": "2026-03-30T23:13:53.796000Z",
      "apogee_km": 580.6114539534374,
      "perigee_km": 574.3376314541492,
      "latitude_deg": 2.2565272558562324e-05,
      "longitude_deg": 166.47533435479016,
      "height_km": 581.5327595536396,
      "semi_major_axis_km": 6955.611542703793,
      "eccentricity": 0.00045099,
      "inclination_deg": 97.6966,
      "raan_deg": 343.3016,
      "arg_perigee_deg": 108.8886,
      "mean_anomaly_deg": 251.2825,
      "mean_motion_rev_day": 14.96579468
    },
    {
      "epoch": "2026-03-31T10:27:50.998752Z",
      "apogee_km": 580.6329307310907,
      "perigee_km": 574.2727393859122,
      "latitude_deg": -2.7134389775950067e-05,
      "longitude_deg": -2.01400781240699,
      "height_km": 581.4552247816407,
      "semi_major_axis_km": 6955.589835058501,
      "eccentricity": 0.0004572,
      "inclination_deg": 97.6966,
      "raan_deg": 343.7619,
      "arg_perigee_deg": 107.5679,
      "mean_anomaly_deg": 252.6042,
      "mean_motion_rev_day": 14.96586474
    }
  ]
}